[{"OBJECT_NAME":"SITRO-AIS 5 (KATYS)","OBJECT_ID":"2023-091L","EPOCH":"2026-03-29T04:53:19.961664","MEAN_MOTION":15.27599165,"ECCENTRICITY":0.0012172,"INCLINATION":97.5145,"RA_OF_ASC_NODE":151.4242,"ARG_OF_PERICENTER":32.6319,"MEAN_ANOMALY":327.5669,"EPHEMERIS_TYPE":0,"CLASSIFICATION_TYPE":"U","NORAD_CAT_ID":57176,"ELEMENT_SET_NO":999,"REV_AT_EPOCH":15212,"BSTAR":0.00065189,"MEAN_MOTION_DOT":0.00017576,"MEAN_MOTION_DDOT":0},{"OBJECT_NAME":"SITRO-AIS 6 (CHIRKIN)","OBJECT_ID":"2023-091AC","EPOCH":"2026-03-29T04:58:47.156736","MEAN_MOTION":15.24703248,"ECCENTRICITY":0.0013067,"INCLINATION":97.5151,"RA_OF_ASC_NODE":150.942,"ARG_OF_PERICENTER":35.131,"MEAN_ANOMALY":325.0787,"EPHEMERIS_TYPE":0,"CLASSIFICATION_TYPE":"U","NORAD_CAT_ID":57192,"ELEMENT_SET_NO":999,"REV_AT_EPOCH":15209,"BSTAR":0.00039995,"MEAN_MOTION_DOT":9.846e-5,"MEAN_MOTION_DDOT":0},{"OBJECT_NAME":"SITRO-AIS 8 (ANOKHIN)","OBJECT_ID":"2023-091AD","EPOCH":"2026-03-29T03:44:58.409376","MEAN_MOTION":15.29959675,"ECCENTRICITY":0.0011208,"INCLINATION":97.5138,"RA_OF_ASC_NODE":152.6606,"ARG_OF_PERICENTER":30.4031,"MEAN_ANOMALY":329.7857,"EPHEMERIS_TYPE":0,"CLASSIFICATION_TYPE":"U","NORAD_CAT_ID":57193,"ELEMENT_SET_NO":999,"REV_AT_EPOCH":15220,"BSTAR":0.00061555,"MEAN_MOTION_DOT":0.00017831,"MEAN_MOTION_DDOT":0},{"OBJECT_NAME":"SITRO-AIS 7 (FARTUSHNIY)","OBJECT_ID":"2023-091AE","EPOCH":"2026-03-29T04:41:18.762720","MEAN_MOTION":15.24433418,"ECCENTRICITY":0.0012968,"INCLINATION":97.5149,"RA_OF_ASC_NODE":150.7928,"ARG_OF_PERICENTER":36.1129,"MEAN_ANOMALY":324.0982,"EPHEMERIS_TYPE":0,"CLASSIFICATION_TYPE":"U","NORAD_CAT_ID":57194,"ELEMENT_SET_NO":999,"REV_AT_EPOCH":15208,"BSTAR":0.00039756,"MEAN_MOTION_DOT":9.708e-5,"MEAN_MOTION_DDOT":0},{"OBJECT_NAME":"SITRO-AIS 10 (BURDAEV)","OBJECT_ID":"2023-091AK","EPOCH":"2026-03-29T04:14:36.694176","MEAN_MOTION":15.35579757,"ECCENTRICITY":0.0006562,"INCLINATION":97.5153,"RA_OF_ASC_NODE":156.9684,"ARG_OF_PERICENTER":11.9172,"MEAN_ANOMALY":348.2225,"EPHEMERIS_TYPE":0,"CLASSIFICATION_TYPE":"U","NORAD_CAT_ID":57199,"ELEMENT_SET_NO":999,"REV_AT_EPOCH":15247,"BSTAR":0.00084792,"MEAN_MOTION_DOT":0.00029339,"MEAN_MOTION_DDOT":0},{"OBJECT_NAME":"SITRO-AIS 9 (SHCHUKIN)","OBJECT_ID":"2023-091AM","EPOCH":"2026-03-29T04:19:05.462976","MEAN_MOTION":15.35182636,"ECCENTRICITY":0.0006817,"INCLINATION":97.515,"RA_OF_ASC_NODE":156.7587,"ARG_OF_PERICENTER":11.2693,"MEAN_ANOMALY":348.8701,"EPHEMERIS_TYPE":0,"CLASSIFICATION_TYPE":"U","NORAD_CAT_ID":57201,"ELEMENT_SET_NO":999,"REV_AT_EPOCH":15246,"BSTAR":0.00081898,"MEAN_MOTION_DOT":0.00027975,"MEAN_MOTION_DDOT":0},{"OBJECT_NAME":"SITRO-AIS 12 (SMIRENNIY)","OBJECT_ID":"2023-091AQ","EPOCH":"2026-03-29T04:26:29.349024","MEAN_MOTION":15.35436933,"ECCENTRICITY":0.0006278,"INCLINATION":97.5164,"RA_OF_ASC_NODE":157.1833,"ARG_OF_PERICENTER":5.1129,"MEAN_ANOMALY":355.0177,"EPHEMERIS_TYPE":0,"CLASSIFICATION_TYPE":"U","NORAD_CAT_ID":57204,"ELEMENT_SET_NO":999,"REV_AT_EPOCH":15248,"BSTAR":0.00078563,"MEAN_MOTION_DOT":0.00027045,"MEAN_MOTION_DDOT":0},{"OBJECT_NAME":"SITRO-AIS 11 (SHEFFER)","OBJECT_ID":"2023-091AU","EPOCH":"2026-03-29T03:41:25.646784","MEAN_MOTION":15.35797341,"ECCENTRICITY":0.0006198,"INCLINATION":97.5161,"RA_OF_ASC_NODE":157.3517,"ARG_OF_PERICENTER":5.2476,"MEAN_ANOMALY":354.8832,"EPHEMERIS_TYPE":0,"CLASSIFICATION_TYPE":"U","NORAD_CAT_ID":57208,"ELEMENT_SET_NO":999,"REV_AT_EPOCH":15249,"BSTAR":0.00073298,"MEAN_MOTION_DOT":0.00025513,"MEAN_MOTION_DDOT":0},{"OBJECT_NAME":"SITRO-AIS 25","OBJECT_ID":"2024-039R","EPOCH":"2026-03-29T05:27:18.642240","MEAN_MOTION":14.92800906,"ECCENTRICITY":0.0144655,"INCLINATION":95.3931,"RA_OF_ASC_NODE":180.1654,"ARG_OF_PERICENTER":247.216,"MEAN_ANOMALY":111.3728,"EPHEMERIS_TYPE":0,"CLASSIFICATION_TYPE":"U","NORAD_CAT_ID":59066,"ELEMENT_SET_NO":999,"REV_AT_EPOCH":11279,"BSTAR":0.00040926,"MEAN_MOTION_DOT":5.157e-5,"MEAN_MOTION_DDOT":0},{"OBJECT_NAME":"SITRO-AIS 26","OBJECT_ID":"2024-039S","EPOCH":"2026-03-29T05:14:08.661120","MEAN_MOTION":14.92613479,"ECCENTRICITY":0.0144874,"INCLINATION":95.3934,"RA_OF_ASC_NODE":180.0725,"ARG_OF_PERICENTER":247.725,"MEAN_ANOMALY":110.8559,"EPHEMERIS_TYPE":0,"CLASSIFICATION_TYPE":"U","NORAD_CAT_ID":59067,"ELEMENT_SET_NO":999,"REV_AT_EPOCH":11278,"BSTAR":0.00048706,"MEAN_MOTION_DOT":6.118e-5,"MEAN_MOTION_DDOT":0},{"OBJECT_NAME":"SITRO-AIS 27","OBJECT_ID":"2024-039T","EPOCH":"2026-03-29T05:02:51.610848","MEAN_MOTION":14.93014117,"ECCENTRICITY":0.014393,"INCLINATION":95.3936,"RA_OF_ASC_NODE":180.3026,"ARG_OF_PERICENTER":246.5151,"MEAN_ANOMALY":112.0892,"EPHEMERIS_TYPE":0,"CLASSIFICATION_TYPE":"U","NORAD_CAT_ID":59068,"ELEMENT_SET_NO":999,"REV_AT_EPOCH":11280,"BSTAR":0.00055941,"MEAN_MOTION_DOT":7.092e-5,"MEAN_MOTION_DDOT":0},{"OBJECT_NAME":"SITRO-AIS 28","OBJECT_ID":"2024-039U","EPOCH":"2026-03-29T04:33:02.997792","MEAN_MOTION":14.93041941,"ECCENTRICITY":0.0143957,"INCLINATION":95.3931,"RA_OF_ASC_NODE":180.3313,"ARG_OF_PERICENTER":246.4414,"MEAN_ANOMALY":112.1635,"EPHEMERIS_TYPE":0,"CLASSIFICATION_TYPE":"U","NORAD_CAT_ID":59071,"ELEMENT_SET_NO":999,"REV_AT_EPOCH":11280,"BSTAR":0.0004667,"MEAN_MOTION_DOT":5.914e-5,"MEAN_MOTION_DDOT":0},{"OBJECT_NAME":"GRBBETA","OBJECT_ID":"2024-128C","EPOCH":"2026-03-29T03:54:09.324288","MEAN_MOTION":15.05990368,"ECCENTRICITY":0.0049613,"INCLINATION":61.9893,"RA_OF_ASC_NODE":136.8956,"ARG_OF_PERICENTER":117.8369,"MEAN_ANOMALY":242.7763,"EPHEMERIS_TYPE":0,"CLASSIFICATION_TYPE":"U","NORAD_CAT_ID":60237,"ELEMENT_SET_NO":999,"REV_AT_EPOCH":9421,"BSTAR":0.00033533,"MEAN_MOTION_DOT":4.829e-5,"MEAN_MOTION_DDOT":0},{"OBJECT_NAME":"OOV-CUBE (TUBSAT-30)","OBJECT_ID":"2024-128F","EPOCH":"2026-03-28T12:46:37.130880","MEAN_MOTION":15.02370641,"ECCENTRICITY":0.00529314,"INCLINATION":61.9947,"RA_OF_ASC_NODE":146.729,"ARG_OF_PERICENTER":116.2323,"MEAN_ANOMALY":244.4223,"EPHEMERIS_TYPE":0,"CLASSIFICATION_TYPE":"U","NORAD_CAT_ID":60240,"ELEMENT_SET_NO":999,"REV_AT_EPOCH":9399,"BSTAR":0.00018377531,"MEAN_MOTION_DOT":2.3e-5,"MEAN_MOTION_DDOT":0},{"OBJECT_NAME":"ROBUSTA-3A (MEDITERRANEE)","OBJECT_ID":"2024-128J","EPOCH":"2026-03-29T04:42:21.566016","MEAN_MOTION":15.10444132,"ECCENTRICITY":0.0050035,"INCLINATION":61.986,"RA_OF_ASC_NODE":130.8537,"ARG_OF_PERICENTER":111.7882,"MEAN_ANOMALY":248.8548,"EPHEMERIS_TYPE":0,"CLASSIFICATION_TYPE":"U","NORAD_CAT_ID":60243,"ELEMENT_SET_NO":999,"REV_AT_EPOCH":9433,"BSTAR":0.00056779,"MEAN_MOTION_DOT":9.454e-5,"MEAN_MOTION_DDOT":0},{"OBJECT_NAME":"LASARSAT","OBJECT_ID":"2024-247Q","EPOCH":"2026-03-29T01:40:49.166400","MEAN_MOTION":15.41468505,"ECCENTRICITY":0.0004383,"INCLINATION":44.9773,"RA_OF_ASC_NODE":350.7602,"ARG_OF_PERICENTER":204.5652,"MEAN_ANOMALY":155.5028,"EPHEMERIS_TYPE":0,"CLASSIFICATION_TYPE":"U","NORAD_CAT_ID":62391,"ELEMENT_SET_NO":999,"REV_AT_EPOCH":7093,"BSTAR":0.00090771,"MEAN_MOTION_DOT":0.00038702,"MEAN_MOTION_DDOT":0}]
