SITRO-AIS 5 (KATYS)     
1 57176U 23091L   26088.20370326  .00017576  00000+0  65189-3 0  9995
2 57176  97.5145 151.4242 0012172  32.6319 327.5669 15.27599165152124
SITRO-AIS 6 (CHIRKIN)   
1 57192U 23091AC  26088.20749024  .00009846  00000+0  39995-3 0  9995
2 57192  97.5151 150.9420 0013067  35.1310 325.0787 15.24703248152090
SITRO-AIS 8 (ANOKHIN)   
1 57193U 23091AD  26088.15623159  .00017831  00000+0  61555-3 0  9990
2 57193  97.5138 152.6606 0011208  30.4031 329.7857 15.29959675152208
SITRO-AIS 7 (FARTUSHNIY)
1 57194U 23091AE  26088.19535605  .00009708  00000+0  39756-3 0  9995
2 57194  97.5149 150.7928 0012968  36.1129 324.0982 15.24433418152082
SITRO-AIS 10 (BURDAEV)  
1 57199U 23091AK  26088.17681359  .00029339  00000+0  84792-3 0  9998
2 57199  97.5153 156.9684 0006562  11.9172 348.2225 15.35579757152471
SITRO-AIS 9 (SHCHUKIN)  
1 57201U 23091AM  26088.17992434  .00027975  00000+0  81898-3 0  9999
2 57201  97.5150 156.7587 0006817  11.2693 348.8701 15.35182636152466
SITRO-AIS 12 (SMIRENNIY)
1 57204U 23091AQ  26088.18506191  .00027045  00000+0  78563-3 0  9997
2 57204  97.5164 157.1833 0006278   5.1129 355.0177 15.35436933152481
SITRO-AIS 11 (SHEFFER)  
1 57208U 23091AU  26088.15376906  .00025513  00000+0  73298-3 0  9995
2 57208  97.5161 157.3517 0006198   5.2476 354.8832 15.35797341152499
SITRO-AIS 25            
1 59066U 24039R   26088.22729910  .00005157  00000+0  40926-3 0  9991
2 59066  95.3931 180.1654 0144655 247.2160 111.3728 14.92800906112792
SITRO-AIS 26            
1 59067U 24039S   26088.21815580  .00006118  00000+0  48706-3 0  9992
2 59067  95.3934 180.0725 0144874 247.7250 110.8559 14.92613479112784
SITRO-AIS 27            
1 59068U 24039T   26088.21031957  .00007092  00000+0  55941-3 0  9992
2 59068  95.3936 180.3026 0143930 246.5151 112.0892 14.93014117112805
SITRO-AIS 28            
1 59071U 24039U   26088.18961803  .00005914  00000+0  46670-3 0  9994
2 59071  95.3931 180.3313 0143957 246.4414 112.1635 14.93041941112804
GRBBETA                 
1 60237U 24128C   26088.16260792  .00004829  00000+0  33533-3 0  9994
2 60237  61.9893 136.8956 0049613 117.8369 242.7763 15.05990368 94215
OOV-CUBE (TUBSAT-30)    
1 60240U 24128F   26087.53237420  .00002300  00000+0  18378-3 0  9992
2 60240  61.9947 146.7290 0052931 116.2323 244.4223 15.02370641 93997
ROBUSTA-3A (MEDITERRAN*)
1 60243U 24128J   26088.19608294  .00009454  00000+0  56779-3 0  9993
2 60243  61.9860 130.8537 0050035 111.7882 248.8548 15.10444132 94338
LASARSAT                
1 62391U 24247Q   26088.07001350  .00038702  00000+0  90771-3 0  9996
2 62391  44.9773 350.7602 0004383 204.5652 155.5028 15.41468505 70936
